{"type": "FeatureCollection", "features": [ {"type": "Feature", "properties": {"norad_id": 31078, "name": "FENGYUN 1C DEB", "group": "fengyun-1c-debris", "lat": 42.11711977427205, "lon": 32.600221444629874, "alt_km": 861.7565956640456, "timestamp": "2025-12-06T07:31:40.517309+00:00", "meta": {"OBJECT_NAME": "FENGYUN 1C DEB", "OBJECT_ID": "1999-025BFY", "EPOCH": "2025-12-04T00:10:05.180160", "MEAN_MOTION": 14.22040787, "ECCENTRICITY": 0.01168076, "INCLINATION": 98.8693, "RA_OF_ASC_NODE": 38.3965, "ARG_OF_PERICENTER": 173.855, "MEAN_ANOMALY": 308.0824, "EPHEMERIS_TYPE": 0, "CLASSIFICATION_TYPE": "U", "NORAD_CAT_ID": 31078, "ELEMENT_SET_NO": 999, "REV_AT_EPOCH": 96768, "BSTAR": 0.0010979293, "MEAN_MOTION_DOT": 2.558e-05, "MEAN_MOTION_DDOT": 0}, "tle": {"line1": "1 31078U 99025BFY 25338.00700440  .00002558  00000+0  10979-2 0  9997", "line2": "2 31078  98.8693  38.3965 0116807 173.8550 308.0824 14.22040787967686"}}, "geometry": {"type": "Point", "coordinates": [32.600221444629874, 42.11711977427205]}}, {"type": "Feature", "properties": {"norad_id": 31081, "name": "FENGYUN 1C DEB", "group": "fengyun-1c-debris", "lat": -2.546571898850832, "lon": 176.5557444469421, "alt_km": 861.836761912271, "timestamp": "2025-12-06T07:31:40.517320+00:00", "meta": {"OBJECT_NAME": "FENGYUN 1C DEB", "OBJECT_ID": "1999-025BGB", "EPOCH": "2025-12-04T06:55:14.879424", "MEAN_MOTION": 14.06294521, "ECCENTRICITY": 0.0047176, "INCLINATION": 98.7708, "RA_OF_ASC_NODE": 354.9871, "ARG_OF_PERICENTER": 255.2266, "MEAN_ANOMALY": 120.0318, "EPHEMERIS_TYPE": 0, "CLASSIFICATION_TYPE": "U", "NORAD_CAT_ID": 31081, "ELEMENT_SET_NO": 999, "REV_AT_EPOCH": 96342, "BSTAR": 8.3325e-05, "MEAN_MOTION_DOT": 9.6e-07, "MEAN_MOTION_DDOT": 0}, "tle": {"line1": "1 31081U 99025BGB 25338.28836666  .00000096  00000+0  83325-4 0  9993", "line2": "2 31081  98.7708 354.9871 0047176 255.2266 120.0318 14.06294521963427"}}, "geometry": {"type": "Point", "coordinates": [176.5557444469421, -2.546571898850832]}}, {"type": "Feature", "properties": {"norad_id": 31083, "name": "FENGYUN 1C DEB", "group": "fengyun-1c-debris", "lat": 28.44618003573342, "lon": 92.7372357460072, "alt_km": 676.3209938563041, "timestamp": "2025-12-06T07:31:40.517330+00:00", "meta": {"OBJECT_NAME": "FENGYUN 1C DEB", "OBJECT_ID": "1999-025BGD", "EPOCH": "2025-12-05T06:53:26.990880", "MEAN_MOTION": 14.61718196, "ECCENTRICITY": 0.00304458, "INCLINATION": 98.6493, "RA_OF_ASC_NODE": 96.394, "ARG_OF_PERICENTER": 329.1488, "MEAN_ANOMALY": 60.6411, "EPHEMERIS_TYPE": 0, "CLASSIFICATION_TYPE": "U", "NORAD_CAT_ID": 31083, "ELEMENT_SET_NO": 999, "REV_AT_EPOCH": 97601, "BSTAR": 0.0053001135, "MEAN_MOTION_DOT": 0.0002663, "MEAN_MOTION_DDOT": 0}, "tle": {"line1": "1 31083U 99025BGD 25339.28711795  .00026630  00000+0  53001-2 0  9999", "line2": "2 31083  98.6493  96.3940 0030445 329.1488  60.6411 14.61718196976013"}}, "geometry": {"type": "Point", "coordinates": [92.7372357460072, 28.44618003573342]}}, {"type": "Feature", "properties": {"norad_id": 31085, "name": "FENGYUN 1C DEB", "group": "fengyun-1c-debris", "lat": 16.88507258215656, "lon": 3.642074709188461, "alt_km": 827.9452975826771, "timestamp": "2025-12-06T07:31:40.517340+00:00", "meta": {"OBJECT_NAME": "FENGYUN 1C DEB", "OBJECT_ID": "1999-025BGF", "EPOCH": "2025-12-03T20:04:52.146624", "MEAN_MOTION": 14.30301039, "ECCENTRICITY": 0.00876601, "INCLINATION": 98.9847, "RA_OF_ASC_NODE": 178.3326, "ARG_OF_PERICENTER": 43.8079, "MEAN_ANOMALY": 331.3397, "EPHEMERIS_TYPE": 0, "CLASSIFICATION_TYPE": "U", "NORAD_CAT_ID": 31085, "ELEMENT_SET_NO": 999, "REV_AT_EPOCH": 97589, "BSTAR": 0.00014796606, "MEAN_MOTION_DOT": 3.54e-06, "MEAN_MOTION_DDOT": 0}, "tle": {"line1": "1 31085U 99025BGF 25337.83671466  .00000354  00000+0  14797-3 0  9995", "line2": "2 31085  98.9847 178.3326 0087660  43.8079 331.3397 14.30301039975893"}}, "geometry": {"type": "Point", "coordinates": [3.642074709188461, 16.88507258215656]}}, {"type": "Feature", "properties": {"norad_id": 31087, "name": "FENGYUN 1C DEB", "group": "fengyun-1c-debris", "lat": -31.83538994605234, "lon": 5.938174267820337, "alt_km": 581.5875557576292, "timestamp": "2025-12-06T07:31:40.517350+00:00", "meta": {"OBJECT_NAME": "FENGYUN 1C DEB", "OBJECT_ID": "1999-025BGH", "EPOCH": "2025-12-03T12:59:41.576352", "MEAN_MOTION": 14.6016091, "ECCENTRICITY": 0.01725272, "INCLINATION": 98.1032, "RA_OF_ASC_NODE": 358.1517, "ARG_OF_PERICENTER": 319.9083, "MEAN_ANOMALY": 203.5704, "EPHEMERIS_TYPE": 0, "CLASSIFICATION_TYPE": "U", "NORAD_CAT_ID": 31087, "ELEMENT_SET_NO": 999, "REV_AT_EPOCH": 98635, "BSTAR": 0.001258237, "MEAN_MOTION_DOT": 7.422e-05, "MEAN_MOTION_DDOT": 0}, "tle": {"line1": "1 31087U 99025BGH 25337.54145343  .00007422  00000+0  12582-2 0  9997", "line2": "2 31087  98.1032 358.1517 0172527 319.9083 203.5704 14.60160910986351"}}, "geometry": {"type": "Point", "coordinates": [5.938174267820337, -31.83538994605234]}}, {"type": "Feature", "properties": {"norad_id": 31088, "name": "FENGYUN 1C DEB", "group": "fengyun-1c-debris", "lat": -59.46384784332611, "lon": -156.3386130591869, "alt_km": 823.2479022620191, "timestamp": "2025-12-06T07:31:40.517361+00:00", "meta": {"OBJECT_NAME": "FENGYUN 1C DEB", "OBJECT_ID": "1999-025BGJ", "EPOCH": "2025-12-03T02:54:23.161824", "MEAN_MOTION": 14.28572278, "ECCENTRICITY": 0.00292595, "INCLINATION": 99.413, "RA_OF_ASC_NODE": 36.553, "ARG_OF_PERICENTER": 89.3587, "MEAN_ANOMALY": 301.3086, "EPHEMERIS_TYPE": 0, "CLASSIFICATION_TYPE": "U", "NORAD_CAT_ID": 31088, "ELEMENT_SET_NO": 999, "REV_AT_EPOCH": 96412, "BSTAR": 0.0021893193, "MEAN_MOTION_DOT": 5.471e-05, "MEAN_MOTION_DDOT": 0}, "tle": {"line1": "1 31088U 99025BGJ 25337.12110141  .00005471  00000+0  21893-2 0  9997", "line2": "2 31088  99.4130  36.5530 0029259  89.3587 301.3086 14.28572278964126"}}, "geometry": {"type": "Point", "coordinates": [-156.3386130591869, -59.46384784332611]}}, {"type": "Feature", "properties": {"norad_id": 31089, "name": "FENGYUN 1C DEB", "group": "fengyun-1c-debris", "lat": -6.821476577391207, "lon": -58.457904328726045, "alt_km": 825.6586121010214, "timestamp": "2025-12-06T07:31:40.517371+00:00", "meta": {"OBJECT_NAME": "FENGYUN 1C DEB", "OBJECT_ID": "1999-025BGK", "EPOCH": "2025-12-01T09:07:49.380096", "MEAN_MOTION": 13.88281458, "ECCENTRICITY": 0.02056627, "INCLINATION": 98.9488, "RA_OF_ASC_NODE": 117.8872, "ARG_OF_PERICENTER": 242.4516, "MEAN_ANOMALY": 143.828, "EPHEMERIS_TYPE": 0, "CLASSIFICATION_TYPE": "U", "NORAD_CAT_ID": 31089, "ELEMENT_SET_NO": 999, "REV_AT_EPOCH": 67902, "BSTAR": 0.00085311791, "MEAN_MOTION_DOT": 1.165e-05, "MEAN_MOTION_DDOT": 0}, "tle": {"line1": "1 31089U 99025BGK 25335.38043264  .00001165  00000+0  85312-3 0  9998", "line2": "2 31089  98.9488 117.8872 0205662 242.4516 143.8280 13.88281458679026"}}, "geometry": {"type": "Point", "coordinates": [-58.457904328726045, -6.821476577391207]}}, {"type": "Feature", "properties": {"norad_id": 31090, "name": "FENGYUN 1C DEB", "group": "fengyun-1c-debris", "lat": 15.191097563558529, "lon": -94.55440601562576, "alt_km": 431.2082471816875, "timestamp": "2025-12-06T07:31:40.517381+00:00", "meta": {"OBJECT_NAME": "FENGYUN 1C DEB", "OBJECT_ID": "1999-025BGL", "EPOCH": "2025-12-05T05:44:12.071040", "MEAN_MOTION": 15.3212721, "ECCENTRICITY": 0.00571542, "INCLINATION": 98.9862, "RA_OF_ASC_NODE": 81.6804, "ARG_OF_PERICENTER": 158.9203, "MEAN_ANOMALY": 201.4408, "EPHEMERIS_TYPE": 0, "CLASSIFICATION_TYPE": "U", "NORAD_CAT_ID": 31090, "ELEMENT_SET_NO": 999, "REV_AT_EPOCH": 723, "BSTAR": 0.0028068541, "MEAN_MOTION_DOT": 0.0009253, "MEAN_MOTION_DDOT": 0}, "tle": {"line1": "1 31090U 99025BGL 25339.23902860  .00092530  00000+0  28069-2 0  9995", "line2": "2 31090  98.9862  81.6804 0057154 158.9203 201.4408 15.32127210  7239"}}, "geometry": {"type": "Point", "coordinates": [-94.55440601562576, 15.191097563558529]}}, {"type": "Feature", "properties": {"norad_id": 31091, "name": "FENGYUN 1C DEB", "group": "fengyun-1c-debris", "lat": 34.525866112625124, "lon": 144.20851559067262, "alt_km": 1256.7370543918914, "timestamp": "2025-12-06T07:31:40.517391+00:00", "meta": {"OBJECT_NAME": "FENGYUN 1C DEB", "OBJECT_ID": "1999-025BGM", "EPOCH": "2025-12-04T17:34:43.964256", "MEAN_MOTION": 13.54129173, "ECCENTRICITY": 0.02910245, "INCLINATION": 99.2238, "RA_OF_ASC_NODE": 316.3135, "ARG_OF_PERICENTER": 349.3064, "MEAN_ANOMALY": 10.1972, "EPHEMERIS_TYPE": 0, "CLASSIFICATION_TYPE": "U", "NORAD_CAT_ID": 31091, "ELEMENT_SET_NO": 999, "REV_AT_EPOCH": 61531, "BSTAR": 0.0015277738, "MEAN_MOTION_DOT": 1.317e-05, "MEAN_MOTION_DDOT": 0}, "tle": {"line1": "1 31091U 99025BGM 25338.73245329  .00001317  00000+0  15278-2 0  9991", "line2": "2 31091  99.2238 316.3135 0291024 349.3064  10.1972 13.54129173615310"}}, "geometry": {"type": "Point", "coordinates": [144.20851559067262, 34.525866112625124]}}, {"type": "Feature", "properties": {"norad_id": 31092, "name": "FENGYUN 1C DEB", "group": "fengyun-1c-debris", "lat": -35.16903275601002, "lon": 103.25415996788212, "alt_km": 1332.94156006493, "timestamp": "2025-12-06T07:31:40.517401+00:00", "meta": {"OBJECT_NAME": "FENGYUN 1C DEB", "OBJECT_ID": "1999-025BGN", "EPOCH": "2025-11-15T07:00:52.552224", "MEAN_MOTION": 13.46401433, "ECCENTRICITY": 0.03278725, "INCLINATION": 99.7115, "RA_OF_ASC_NODE": 75.9227, "ARG_OF_PERICENTER": 204.4209, "MEAN_ANOMALY": 154.1084, "EPHEMERIS_TYPE": 0, "CLASSIFICATION_TYPE": "U", "NORAD_CAT_ID": 31092, "ELEMENT_SET_NO": 999, "REV_AT_EPOCH": 91512, "BSTAR": 0.0042000132, "MEAN_MOTION_DOT": 3.457e-05, "MEAN_MOTION_DDOT": 0}, "tle": {"line1": "1 31092U 99025BGN 25319.29227491  .00003457  00000+0  42000-2 0  9992", "line2": "2 31092  99.7115  75.9227 0327872 204.4209 154.1084 13.46401433915121"}}, "geometry": {"type": "Point", "coordinates": [103.25415996788212, -35.16903275601002]}}]}